SENTINEL-6A             
1 46984U 20086A   26204.07848740 -.00000059  00000+0  90394-5 0  9993
2 46984  66.0410  60.5060 0007779 269.6212  90.3912 12.80930280264925
SENTINEL-6B             
1 66514U 25264A   26204.31306307 -.00000058  00000+0  13065-4 0  9990
2 66514  66.0410  60.1450 0007820 268.3435  91.6684 12.80930299 31792
